NORAD_CAT_ID,OBJECT_NAME,OBJECT_TYPE,EPOCH,MEAN_MOTION,ECCENTRICITY,INCLINATION,RA_OF_ASC_NODE,ARG_OF_PERICENTER,MEAN_ANOMALY,BSTAR,MEAN_MOTION_DOT,MEAN_MOTION_DDOT,TLE_LINE0,TLE_LINE1,TLE_LINE2,SEMIMAJOR_AXIS,PERIOD,APOGEE,PERIGEE,DECAYED
54198.0,STARLINK-5246,PAYLOAD,2023-02-24 22:05:50,15.08846791,0.0001112,53.2148,291.4132,86.0801,274.0318,0.00024595,3.629e-05,0.0,0 STARLINK-5246,1 54198U 22141AT  23055.92072906  .00003629  00000-0  24595-3 0  9995,2 54198  53.2148 291.4132 0001112  86.0801 274.0318 15.08846791 18612,6917.86,95.437,540.494,538.955,0.0
54198.0,STARLINK-5246,PAYLOAD,2023-02-25 01:16:37,15.08847634,9.41e-05,53.2145,290.8173,80.8428,279.2671,0.00036993,5.606e-05,0.0,0 STARLINK-5246,1 54198U 22141AT  23056.05320880  .00005606  00000-0  36993-3 0  9999,2 54198  53.2145 290.8173 0000941  80.8428 279.2671 15.08847634 18866,6917.857,95.437,540.373,539.071,0.0
54198.0,STARLINK-5246,PAYLOAD,2023-02-25 18:45:52,15.08837547,0.0001244,53.2151,287.5462,87.711,272.4024,0.00024566,3.624e-05,0.0,0 STARLINK-5246,1 54198U 22141AT  23056.78185265  .00003624  00000-0  24566-3 0  9996,2 54198  53.2151 287.5462 0001244  87.7110 272.4024 15.08837547 18979,6917.888,95.438,540.613,538.892,0.0
54198.0,STARLINK-5246,PAYLOAD,2023-02-25 21:56:38,15.08841894,0.0001176,53.2152,286.9502,91.457,268.6557,0.00022317,3.266e-05,0.0,0 STARLINK-5246,1 54198U 22141AT  23056.91433110  .00003266  00000-0  22317-3 0  9990,2 54198  53.2152 286.9502 0001176  91.4570 268.6557 15.08841894 18769,6917.875,95.437,540.553,538.926,0.0
54198.0,STARLINK-5246,PAYLOAD,2023-02-26 21:47:24,15.08855945,0.0001038,53.2163,282.4895,91.9179,268.1932,0.00037817,5.738e-05,0.0,0 STARLINK-5246,1 54198U 22141AT  23057.90792480  .00005738  00000-0  37817-3 0  9995,2 54198  53.2163 282.4895 0001038  91.9179 268.1932 15.08855945 18915,6917.832,95.437,540.415,538.979,0.0
54198.0,STARLINK-5246,PAYLOAD,2023-02-27 00:58:10,15.08856086,0.0001002,53.2163,281.8951,90.4406,269.6701,0.00037133,5.629e-05,0.0,0 STARLINK-5246,1 54198U 22141AT  23058.04040410  .00005629  00000-0  37133-3 0  9990,2 54198  53.2163 281.8951 0001002  90.4406 269.6701 15.08856086 19164,6917.831,95.437,540.389,539.003,0.0
54198.0,STARLINK-5246,PAYLOAD,2023-02-27 10:30:29,15.08849443,9.9e-05,53.2162,280.112,115.4977,244.6117,0.00025106,3.711e-05,0.0,0 STARLINK-5246,1 54198U 22141AT  23058.43784552  .00003711  00000-0  25106-3 0  9992,2 54198  53.2162 280.1120 0000990 115.4977 244.6117 15.08849443 19229,6917.852,95.437,540.401,539.032,0.0
54198.0,STARLINK-5246,PAYLOAD,2023-02-27 21:38:11,15.08852353,9.2e-05,53.2153,278.0326,80.4755,279.6341,0.00019866,2.876e-05,0.0,0 STARLINK-5246,1 54198U 22141AT  23058.90152215  .00002876  00000-0  19866-3 0  9996,2 54198  53.2153 278.0326 0000920  80.4755 279.6341 15.08852353 19064,6917.843,95.437,540.344,539.071,0.0
54198.0,STARLINK-5246,PAYLOAD,2023-02-28 10:21:17,15.08837296,6.57e-05,53.2166,275.651,29.0307,331.0722,-9.594e-05,-1.814e-05,0.0,0 STARLINK-5246,1 54198U 22141AT  23059.43144984 -.00001814  00000-0 -95940-4 0  9990,2 54198  53.2166 275.6510 0000657  29.0307 331.0722 15.08837296 19374,6917.889,95.438,540.208,539.299,0.0
54198.0,STARLINK-5246,PAYLOAD,2023-02-28 11:56:40,15.08831928,8.67e-05,53.2165,275.3536,52.672,307.4351,-0.00019424,-3.377e-05,0.0,0 STARLINK-5246,1 54198U 22141AT  23059.49769096 -.00003377  00000-0 -19424-3 0  9991,2 54198  53.2165 275.3536 0000867  52.6720 307.4351 15.08831928 19159,6917.905,95.438,540.37,539.17,0.0
54198.0,STARLINK-5246,PAYLOAD,2023-02-28 18:18:13,15.08823003,9.5e-05,53.2158,274.1682,90.8291,269.281,-0.00023791,-4.07e-05,0.0,0 STARLINK-5246,1 54198U 22141AT  23059.76265878 -.00004070  00000-0 -23791-3 0  9993,2 54198  53.2158 274.1682 0000950  90.8291 269.2810 15.08823003 19420,6917.932,95.439,540.455,539.14,0.0
54198.0,STARLINK-5246,PAYLOAD,2023-02-28 21:28:59,15.08823715,8.72e-05,53.216,273.5714,100.8139,259.2951,-0.00025541,-4.348e-05,0.0,0 STARLINK-5246,1 54198U 22141AT  23059.89513860 -.00004348  00000-0 -25541-3 0  9997,2 54198  53.2160 273.5714 0000872 100.8139 259.2951 15.08823715 19210,6917.93,95.439,540.398,539.192,0.0
54198.0,STARLINK-5246,PAYLOAD,2023-03-01 10:12:05,15.08831402,9.17e-05,53.2164,271.1918,100.1344,259.9751,4.7798e-05,4.73e-06,0.0,0 STARLINK-5246,1 54198U 22141AT  23060.42506154  .00000473  00000-0  47798-4 0  9998,2 54198  53.2164 271.1918 0000917 100.1344 259.9751 15.08831402 19526,6917.907,95.438,540.406,539.137,0.0
54198.0,STARLINK-5246,PAYLOAD,2023-03-01 21:19:47,15.08838159,9.7e-05,53.2158,269.1107,102.6449,257.4652,0.00020848,3.032e-05,0.0,0 STARLINK-5246,1 54198U 22141AT  23060.88873948  .00003032  00000-0  20848-3 0  9996,2 54198  53.2158 269.1107 0000970 102.6449 257.4652 15.08838159 19369,6917.886,95.438,540.422,539.08,0.0
54198.0,STARLINK-5246,PAYLOAD,2023-03-02 02:05:56,15.08845874,9.14e-05,53.2159,268.2178,99.3396,260.7699,0.00023167,3.402e-05,0.0,0 STARLINK-5246,1 54198U 22141AT  23061.08745528  .00003402  00000-0  23167-3 0  9999,2 54198  53.2159 268.2178 0000914  99.3396 260.7699 15.08845874 19628,6917.862,95.437,540.36,539.095,0.0
54198.0,STARLINK-5246,PAYLOAD,2023-03-02 19:35:10,15.08848927,8.83e-05,53.2153,264.9472,102.2803,257.8288,0.00041542,6.331e-05,0.0,0 STARLINK-5246,1 54198U 22141AT  23061.81609880  .00006331  00000-0  41542-3 0  9991,2 54198  53.2153 264.9472 0000883 102.2803 257.8288 15.08848927 19739,6917.853,95.437,540.329,539.107,0.0
54198.0,STARLINK-5246,PAYLOAD,2023-03-03 13:04:25,15.08851215,8.79e-05,53.2148,261.6762,76.2068,283.9022,0.00037104,5.624e-05,0.0,0 STARLINK-5246,1 54198U 22141AT  23062.54473698  .00005624  00000-0  37104-3 0  9991,2 54198  53.2148 261.6762 0000879  76.2068 283.9022 15.08851215 19614,6917.846,95.437,540.319,539.103,0.0
54198.0,STARLINK-5246,PAYLOAD,2023-03-03 19:25:57,15.08856299,7.61e-05,53.2149,260.4864,63.4097,296.6973,0.00076413,0.000119,0.0,0 STARLINK-5246,1 54198U 22141AT  23062.80969540  .00011900  00000-0  76413-3 0  9996,2 54198  53.2149 260.4864 0000761  63.4097 296.6973 15.08856299 19887,6917.831,95.437,540.222,539.169,0.0
54198.0,STARLINK-5246,PAYLOAD,2023-03-03 21:01:20,15.08862592,6.42e-05,53.2153,260.189,41.005,319.099,0.0010839,0.00017015,0.0,0 STARLINK-5246,1 54198U 22141AT  23062.87593442  .00017015  00000-0  10839-2 0  9999,2 54198  53.2153 260.1890 0000642  41.0050 319.0990 15.08862592 19665,6917.811,95.436,540.12,539.232,0.0
54198.0,STARLINK-5246,PAYLOAD,2023-03-03 22:36:43,15.08863287,6.92e-05,53.2154,259.8912,53.0078,307.0977,0.0010283,0.00016126,0.0,0 STARLINK-5246,1 54198U 22141AT  23062.94217373  .00016126  00000-0  10283-2 0  9998,2 54198  53.2154 259.8912 0000692  53.0078 307.0977 15.08863287 19679,6917.809,95.436,540.153,539.195,0.0
54198.0,STARLINK-5246,PAYLOAD,2023-03-04 17:41:21,15.08850834,8.32e-05,53.2182,256.3237,88.2738,271.8349,0.00051513,7.922e-05,0.0,0 STARLINK-5246,1 54198U 22141AT  23063.73705573  .00007922  00000-0  51513-3 0  9996,2 54198  53.2182 256.3237 0000832  88.2738 271.8349 15.08850834 19799,6917.847,95.437,540.288,539.137,0.0
54198.0,STARLINK-5246,PAYLOAD,2023-03-04 22:27:31,15.08854656,9.9e-05,53.2157,255.4304,56.6771,303.4316,0.00087475,0.00013667,0.0,0 STARLINK-5246,1 54198U 22141AT  23063.93577594  .00013667  00000-0  87475-3 0  9997,2 54198  53.2157 255.4304 0000990  56.6771 303.4316 15.08854656 20050,6917.836,95.437,540.385,539.016,0.0
54198.0,STARLINK-5246,PAYLOAD,2023-03-05 19:07:32,15.08847206,0.0001003,53.2167,251.566,80.1278,279.9827,0.0010924,0.00017144,0.0,0 STARLINK-5246,1 54198U 22141AT  23064.79689870  .00017144  00000-0  10924-2 0  9991,2 54198  53.2167 251.5660 0001003  80.1278 279.9827 15.08847206 20184,6917.858,95.437,540.417,539.03,0.0
54198.0,STARLINK-5246,PAYLOAD,2023-03-06 18:58:18,15.08854577,0.0001237,53.217,247.1041,80.2217,279.8915,0.00079841,0.00012447,0.0,0 STARLINK-5246,1 54198U 22141AT  23065.79049701  .00012447  00000-0  79841-3 0  9990,2 54198  53.2170 247.1041 0001237  80.2217 279.8915 15.08854577 20338,6917.836,95.437,540.557,538.845,0.0
54198.0,STARLINK-5246,PAYLOAD,2023-03-07 04:30:37,15.08830656,0.0001913,53.2179,245.321,71.949,288.1711,-8.9058e-05,-1.705e-05,0.0,0 STARLINK-5246,1 54198U 22141AT  23066.18793220 -.00001705  00000-0 -89058-4 0  9995,2 54198  53.2179 245.3210 0001913  71.9490 288.1711 15.08830656 20391,6917.909,95.438,541.097,538.451,0.0
54198.0,STARLINK-5246,PAYLOAD,2023-03-07 18:49:05,15.08849666,0.0001421,53.2186,242.6451,88.3715,271.744,0.00044705,6.836e-05,0.0,0 STARLINK-5246,1 54198U 22141AT  23066.78409682  .00006836  00000-0  44705-3 0  9994,2 54198  53.2186 242.6451 0001421  88.3715 271.7440 15.08849666 20255,6917.851,95.437,540.699,538.733,0.0
54198.0,STARLINK-5246,PAYLOAD,2023-03-08 10:42:57,15.08838727,0.0001511,53.2159,239.6711,94.7368,265.3797,0.00013175,1.809e-05,0.0,0 STARLINK-5246,1 54198U 22141AT  23067.44650090  .00001809  00000-0  13175-3 0  9991,2 54198  53.2159 239.6711 0001511  94.7368 265.3797 15.08838727 20581,6917.884,95.438,540.795,538.704,0.0
54198.0,STARLINK-5246,PAYLOAD,2023-03-08 12:18:20,15.08837857,0.0001596,53.2171,239.3738,96.8868,263.2305,0.00015248,2.139e-05,0.0,0 STARLINK-5246,1 54198U 22141AT  23067.51274184  .00002139  00000-0  15248-3 0  9995,2 54198  53.2171 239.3738 0001596  96.8868 263.2305 15.08837857 20363,6917.887,95.438,540.856,538.648,0.0
54198.0,STARLINK-5246,PAYLOAD,2023-03-09 18:30:40,15.0884661,0.0001112,53.2183,233.7242,85.6161,274.4958,0.00031263,4.692e-05,0.0,0 STARLINK-5246,1 54198U 22141AT  23068.77129933  .00004692  00000-0  31263-3 0  9996,2 54198  53.2183 233.7242 0001112  85.6161 274.4958 15.08846610 20781,6917.86,95.437,540.494,538.956,0.0
54198.0,STARLINK-5246,PAYLOAD,2023-03-10 10:24:31,15.08837162,0.0001274,53.2161,230.7525,86.6383,273.4755,2.7766e-06,-2.44e-06,0.0,0 STARLINK-5246,1 54198U 22141AT  23069.43370297 -.00000244  00000-0  27766-5 0  9996,2 54198  53.2161 230.7525 0001274  86.6383 273.4755 15.08837162 20881,6917.889,95.438,540.635,538.873,0.0
